{
  "type": "FeatureCollection",
  "features": [
    {
      "type": "Feature",
      "properties": {
        "norad_id": 44333,
        "name": "AT&T T-16",
        "group": "intelsat",
        "lat": 0.013330601494284895,
        "lon": -174.71989317439855,
        "alt_km": 35783.20441903975,
        "timestamp": "2025-12-13T13:34:34.742474+00:00",
        "meta_object_name": "AT&T T-16",
        "meta_object_id": "2019-034A",
        "meta_epoch": "2025-12-12T21:33:37.332000",
        "meta_mean_motion": 1.00273494,
        "meta_eccentricity": 7.506e-05,
        "meta_inclination": 0.0298,
        "meta_ra_of_asc_node": 78.3043,
        "meta_arg_of_pericenter": 66.9673,
        "meta_mean_anomaly": 159.1096,
        "meta_ephemeris_type": 0,
        "meta_classification_type": "U",
        "meta_norad_cat_id": 44333,
        "meta_element_set_no": 999,
        "meta_rev_at_epoch": 2376,
        "meta_bstar": 0,
        "meta_mean_motion_dot": -1.03e-06,
        "meta_mean_motion_ddot": 0,
        "tle_line1": "1 44333U 19034A   25346.89834875 -.00000103  00000+0  00000+0 0  9999",
        "tle_line2": "2 44333   0.0298  78.3043 0000750  66.9673 159.1096  1.00273494 23761"
      },
      "geometry": {
        "type": "Point",
        "coordinates": [
          -174.71989317439855,
          0.013330601494284895
        ]
      }
    },
    {
      "type": "Feature",
      "properties": {
        "norad_id": 44476,
        "name": "INTELSAT 39 (IS-39)",
        "group": "intelsat",
        "lat": 0.012962808240745778,
        "lon": -11.930272954304138,
        "alt_km": 35790.459863367454,
        "timestamp": "2025-12-13T13:34:34.742484+00:00",
        "meta_object_name": "INTELSAT 39 (IS-39)",
        "meta_object_id": "2019-049B",
        "meta_epoch": "2025-12-12T21:23:38.609376",
        "meta_mean_motion": 1.00270748,
        "meta_eccentricity": 0.0001092,
        "meta_inclination": 0.0197,
        "meta_ra_of_asc_node": 326.1198,
        "meta_arg_of_pericenter": 176.2686,
        "meta_mean_anomaly": 322.2984,
        "meta_ephemeris_type": 0,
        "meta_classification_type": "U",
        "meta_norad_cat_id": 44476,
        "meta_element_set_no": 999,
        "meta_rev_at_epoch": 2326,
        "meta_bstar": 0,
        "meta_mean_motion_dot": 4.6e-07,
        "meta_mean_motion_ddot": 0,
        "tle_line1": "1 44476U 19049B   25346.89141909  .00000046  00000+0  00000+0 0  9997",
        "tle_line2": "2 44476   0.0197 326.1198 0001092 176.2686 322.2984  1.00270748 23264"
      },
      "geometry": {
        "type": "Point",
        "coordinates": [
          -11.930272954304138,
          0.012962808240745778
        ]
      }
    },
    {
      "type": "Feature",
      "properties": {
        "norad_id": 46114,
        "name": "GALAXY 30 (G-30)",
        "group": "intelsat",
        "lat": 0.00042211073004805994,
        "lon": 161.11615746601979,
        "alt_km": 35787.617180641355,
        "timestamp": "2025-12-13T13:34:34.742494+00:00",
        "meta_object_name": "GALAXY 30 (G-30)",
        "meta_object_id": "2020-056C",
        "meta_epoch": "2025-12-12T23:09:31.409568",
        "meta_mean_motion": 1.0027306,
        "meta_eccentricity": 0.00021877,
        "meta_inclination": 0.0021,
        "meta_ra_of_asc_node": 351.2248,
        "meta_arg_of_pericenter": 271.9897,
        "meta_mean_anomaly": 41.0751,
        "meta_ephemeris_type": 0,
        "meta_classification_type": "U",
        "meta_norad_cat_id": 46114,
        "meta_element_set_no": 999,
        "meta_rev_at_epoch": 1942,
        "meta_bstar": 0,
        "meta_mean_motion_dot": 4.9e-07,
        "meta_mean_motion_ddot": 0,
        "tle_line1": "1 46114U 20056C   25346.96494687  .00000049  00000+0  00000+0 0  9993",
        "tle_line2": "2 46114   0.0021 351.2248 0002187 271.9897  41.0751  1.00273060 19420"
      },
      "geometry": {
        "type": "Point",
        "coordinates": [
          161.11615746601979,
          0.00042211073004805994
        ]
      }
    },
    {
      "type": "Feature",
      "properties": {
        "norad_id": 54026,
        "name": "GALAXY 33 (G-33)",
        "group": "intelsat",
        "lat": 0.0016744412083301583,
        "lon": 153.1115863728389,
        "alt_km": 35787.89805384831,
        "timestamp": "2025-12-13T13:34:34.742505+00:00",
        "meta_object_name": "GALAXY 33 (G-33)",
        "meta_object_id": "2022-128A",
        "meta_epoch": "2025-12-12T13:45:28.888992",
        "meta_mean_motion": 1.0027165,
        "meta_eccentricity": 0.0001977,
        "meta_inclination": 0.014,
        "meta_ra_of_asc_node": 337.915,
        "meta_arg_of_pericenter": 278.0859,
        "meta_mean_anomaly": 258.8878,
        "meta_ephemeris_type": 0,
        "meta_classification_type": "U",
        "meta_norad_cat_id": 54026,
        "meta_element_set_no": 999,
        "meta_rev_at_epoch": 1187,
        "meta_bstar": 0,
        "meta_mean_motion_dot": 9e-07,
        "meta_mean_motion_ddot": 0,
        "tle_line1": "1 54026U 22128A   25346.57325103  .00000090  00000+0  00000+0 0  9995",
        "tle_line2": "2 54026   0.0140 337.9150 0001977 278.0859 258.8878  1.00271650 11870"
      },
      "geometry": {
        "type": "Point",
        "coordinates": [
          153.1115863728389,
          0.0016744412083301583
        ]
      }
    },
    {
      "type": "Feature",
      "properties": {
        "norad_id": 54027,
        "name": "GALAXY 34 (G-34)",
        "group": "intelsat",
        "lat": 0.005267188928324565,
        "lon": 157.18083821481562,
        "alt_km": 35787.13749806443,
        "timestamp": "2025-12-13T13:34:34.742516+00:00",
        "meta_object_name": "GALAXY 34 (G-34)",
        "meta_object_id": "2022-128B",
        "meta_epoch": "2025-12-12T23:08:24.017568",
        "meta_mean_motion": 1.00270236,
        "meta_eccentricity": 0.00015024,
        "meta_inclination": 0.0217,
        "meta_ra_of_asc_node": 350.4111,
        "meta_arg_of_pericenter": 262.7721,
        "meta_mean_anomaly": 46.8882,
        "meta_ephemeris_type": 0,
        "meta_classification_type": "U",
        "meta_norad_cat_id": 54027,
        "meta_element_set_no": 999,
        "meta_rev_at_epoch": 1204,
        "meta_bstar": 0,
        "meta_mean_motion_dot": 0,
        "meta_mean_motion_ddot": 0,
        "tle_line1": "1 54027U 22128B   25346.96416687  .00000000  00000+0  00000+0 0  9998",
        "tle_line2": "2 54027   0.0217 350.4111 0001502 262.7721  46.8882  1.00270236 12044"
      },
      "geometry": {
        "type": "Point",
        "coordinates": [
          157.18083821481562,
          0.005267188928324565
        ]
      }
    },
    {
      "type": "Feature",
      "properties": {
        "norad_id": 54243,
        "name": "GALAXY 31 (G-31)",
        "group": "intelsat",
        "lat": -0.009076234301884001,
        "lon": 165.10697332002027,
        "alt_km": 35788.72822110452,
        "timestamp": "2025-12-13T13:34:34.742526+00:00",
        "meta_object_name": "GALAXY 31 (G-31)",
        "meta_object_id": "2022-153A",
        "meta_epoch": "2025-12-12T23:10:38.803296",
        "meta_mean_motion": 1.00270384,
        "meta_eccentricity": 0.00015405,
        "meta_inclination": 0.0122,
        "meta_ra_of_asc_node": 325.0815,
        "meta_arg_of_pericenter": 310.6896,
        "meta_mean_anomaly": 32.7887,
        "meta_ephemeris_type": 0,
        "meta_classification_type": "U",
        "meta_norad_cat_id": 54243,
        "meta_element_set_no": 999,
        "meta_rev_at_epoch": 526,
        "meta_bstar": 0,
        "meta_mean_motion_dot": 0,
        "meta_mean_motion_ddot": 0,
        "tle_line1": "1 54243U 22153A   25346.96572689  .00000000  00000+0  00000+0 0  9991",
        "tle_line2": "2 54243   0.0122 325.0815 0001540 310.6896  32.7887  1.00270384  5265"
      },
      "geometry": {
        "type": "Point",
        "coordinates": [
          165.10697332002027,
          -0.009076234301884001
        ]
      }
    },
    {
      "type": "Feature",
      "properties": {
        "norad_id": 54244,
        "name": "GALAXY 32 (G-32)",
        "group": "intelsat",
        "lat": -0.009126325961046233,
        "lon": -164.89185244935112,
        "alt_km": 35791.041919148345,
        "timestamp": "2025-12-13T13:34:34.742536+00:00",
        "meta_object_name": "GALAXY 32 (G-32)",
        "meta_object_id": "2022-153B",
        "meta_epoch": "2025-12-12T13:02:51.144864",
        "meta_mean_motion": 1.00272099,
        "meta_eccentricity": 0.00025848,
        "meta_inclination": 0.0111,
        "meta_ra_of_asc_node": 11.8146,
        "meta_arg_of_pericenter": 300.84,
        "meta_mean_anomaly": 233.5475,
        "meta_ephemeris_type": 0,
        "meta_classification_type": "U",
        "meta_norad_cat_id": 54244,
        "meta_element_set_no": 999,
        "meta_rev_at_epoch": 1127,
        "meta_bstar": 0,
        "meta_mean_motion_dot": -1.63e-06,
        "meta_mean_motion_ddot": 0,
        "tle_line1": "1 54244U 22153B   25346.54364751 -.00000163  00000+0  00000+0 0  9996",
        "tle_line2": "2 54244   0.0111  11.8146 0002584 300.8400 233.5475  1.00272099 11279"
      },
      "geometry": {
        "type": "Point",
        "coordinates": [
          -164.89185244935112,
          -0.009126325961046233
        ]
      }
    }
  ]
}